[{"OBJECT_NAME":"STARLINK-35745","OBJECT_ID":"2025-247G","EPOCH":"2026-03-09T15:18:34.465824","MEAN_MOTION":15.30194771,"ECCENTRICITY":0.0001112,"INCLINATION":53.1585,"RA_OF_ASC_NODE":191.8333,"ARG_OF_PERICENTER":68.6478,"MEAN_ANOMALY":291.4642,"EPHEMERIS_TYPE":0,"CLASSIFICATION_TYPE":"U","NORAD_CAT_ID":66271,"ELEMENT_SET_NO":999,"REV_AT_EPOCH":2107,"BSTAR":0.0011911,"MEAN_MOTION_DOT":0.00035079,"MEAN_MOTION_DDOT":0},{"OBJECT_NAME":"KSLV-II R\/B","OBJECT_ID":"2023-072H","EPOCH":"2026-03-09T20:13:26.441760","MEAN_MOTION":15.33109439,"ECCENTRICITY":0.00241884,"INCLINATION":97.4991,"RA_OF_ASC_NODE":274.152,"ARG_OF_PERICENTER":318.2938,"MEAN_ANOMALY":41.646,"EPHEMERIS_TYPE":0,"CLASSIFICATION_TYPE":"U","NORAD_CAT_ID":56750,"ELEMENT_SET_NO":999,"REV_AT_EPOCH":15516,"BSTAR":0.00028309532,"MEAN_MOTION_DOT":9.057e-5,"MEAN_MOTION_DDOT":0}]
